ORBCOMM FM33            
1 25983U 99065D   25198.41006695  .00000462  00000+0  19025-3 0  9993
2 25983  45.0268 215.2636 0009845 227.6503 132.3513 14.40042559340425
ORBCOMM FM36            
1 25984U 99065E   25198.48399985  .00000614  00000+0  24701-3 0  9994
2 25984  45.0403 307.3136 0002690 134.8988 225.2079 14.38174056339378
ORBCOMM FM35            
1 25985U 99065F   25198.55496594  .00000570  00000+0  23737-3 0  9996
2 25985  45.0407 312.2518 0005352 195.8085 164.2597 14.37140889339154
ORBCOMM FM34            
1 25986U 99065G   25198.38149676  .00000536  00000+0  22590-3 0  9992
2 25986  45.0400 313.5348 0004611 157.4295 202.6757 14.37159832339240
ORBCOMM FM38            
1 33060U 08031A   25198.43026325  .00001216  00000+0  18105-3 0  9991
2 33060  48.4393 171.1100 0004536 176.5292 183.5656 14.81401350919231
ORBCOMM FM41            
1 33061U 08031B   25198.46900309  .00001050  00000+0  16157-3 0  9999
2 33061  48.4427 178.8087 0003625 160.7498 343.3204 14.80983075919164
ORBCOMM FM29            
1 33062U 08031C   25198.17303773  .00001142  00000+0  17294-3 0  9995
2 33062  48.4378 187.9915 0005273 157.3726 302.6139 14.81087454918596
ORBCOMM FM39            
1 33063U 08031D   25198.48467089  .00000777  00000+0  13061-3 0  9992
2 33063  48.4389 211.1131 0006032 127.7637 232.3825 14.79631934918287
